{
    "links": {
        "self": "http://www.neowsapp.com/rest/v1/neo/3443832?api_key=iIulBulltgU6a56xZRHN4H3l9WmuAYTsLGpBGhQ2"
    },
    "id": "3443832",
    "neo_reference_id": "3443832",
    "name": "(2009 AT)",
    "designation": "2009 AT",
    "nasa_jpl_url": "http://ssd.jpl.nasa.gov/sbdb.cgi?sstr=3443832",
    "absolute_magnitude_h": 21.0,
    "estimated_diameter": {
        "kilometers": {
            "estimated_diameter_min": 0.1677084622,
            "estimated_diameter_max": 0.3750075218
        },
        "meters": {
            "estimated_diameter_min": 167.7084621628,
            "estimated_diameter_max": 375.0075217981
        },
        "miles": {
            "estimated_diameter_min": 0.1042091748,
            "estimated_diameter_max": 0.2330187988
        },
        "feet": {
            "estimated_diameter_min": 550.2246310023,
            "estimated_diameter_max": 1230.3396778159
        }
    },
    "is_potentially_hazardous_asteroid": false,
    "close_approach_data": [
        {
            "close_approach_date": "2008-12-13",
            "close_approach_date_full": "2008-Dec-13 20:58",
            "epoch_date_close_approach": 1229201880000,
            "relative_velocity": {
                "kilometers_per_second": "7.3737999959",
                "kilometers_per_hour": "26545.6799851648",
                "miles_per_hour": "16494.453210782"
            },
            "miss_distance": {
                "astronomical": "0.2851411561",
                "lunar": "110.9199097229",
                "kilometers": "42656509.601897507",
                "miles": "26505525.9890473166"
            },
            "orbiting_body": "Earth"
        },
        {
            "close_approach_date": "2141-12-13",
            "close_approach_date_full": "2141-Dec-13 16:43",
            "epoch_date_close_approach": 5426239380000,
            "relative_velocity": {
                "kilometers_per_second": "7.6514841165",
                "kilometers_per_hour": "27545.3428193319",
                "miles_per_hour": "17115.6048201566"
            },
            "miss_distance": {
                "astronomical": "0.3190530539",
                "lunar": "124.1116379671",
                "kilometers": "47729657.280435193",
                "miles": "29657833.7820359434"
            },
            "orbiting_body": "Earth"
        },
        {
            "close_approach_date": "2150-12-15",
            "close_approach_date_full": "2150-Dec-15 21:10",
            "epoch_date_close_approach": 5710425000000,
            "relative_velocity": {
                "kilometers_per_second": "10.4210587634",
                "kilometers_per_hour": "37515.8115480762",
                "miles_per_hour": "23310.8663477477"
            },
            "miss_distance": {
                "astronomical": "0.4218020959",
                "lunar": "164.0810153051",
                "kilometers": "63100695.108175733",
                "miles": "39208953.7968737954"
            },
            "orbiting_body": "Earth"
        }
    ],
    "orbital_data": {
        "orbit_id": "15",
        "orbit_determination_date": "2017-04-06 09:01:43",
        "first_observation_date": "2009-01-02",
        "last_observation_date": "2009-02-20",
        "data_arc_in_days": 49,
        "observations_used": 64,
        "orbit_uncertainty": "6",
        "minimum_orbit_intersection": ".286618",
        "jupiter_tisserand_invariant": "2.458",
        "epoch_osculation": "2459000.5",
        "eccentricity": ".7156135541882341",
        "semi_major_axis": "4.26346281367364",
        "inclination": "11.94073237524923",
        "ascending_node_longitude": "306.4101895147891",
        "orbital_period": "3215.45285205015",
        "perihelion_distance": "1.212471036431277",
        "perihelion_argument": "124.3307142532297",
        "aphelion_distance": "7.314454590916003",
        "perihelion_time": "2458017.022651062102",
        "mean_anomaly": "110.1094812794105",
        "mean_motion": ".1119593464946832",
        "equinox": "J2000",
        "orbit_class": {
            "orbit_class_type": "AMO",
            "orbit_class_description": "Near-Earth asteroid orbits similar to that of 1221 Amor",
            "orbit_class_range": "1.017 AU < q (perihelion) < 1.3 AU"
        }
    },
    "is_sentry_object": false
}